CTC1_L_00683007-03
1 59198U 22309MJ  26070.40841435  .00000000  00000+0  00000-0 0  9991
2 59198  70.0000 180.0000 0000000   0.0000 144.0000  1.86512155    14
CTC1_L_00683007-04
1 59199U 22395AC  26070.40841435  .00000000  00000+0  00000-0 0  9997
2 59199  70.0000 180.0000 0000000   0.0000 180.0000  1.86512155    15
CTC1_L_00683007-05
1 59200U 22229PO  26070.40841435  .00000000  00000+0  00000-0 0  9996
2 59200  70.0000 180.0000 0000000   0.0000 216.0000  1.86512155    18
CTC1_L_00683007-06
1 59201U 24205PS  26070.40841435  .00000000  00000+0  00000-0 0  9993
2 59201  70.0000 180.0000 0000000   0.0000 252.0000  1.86512155    19
CTC1_L_00683007-07
1 59202U 25805XP  26070.40841435  .00000000  00000+0  00000-0 0  9991
2 59202  70.0000 180.0000 0000000   0.0000 288.0000  1.86512155    19
CTC1_L_00683007-08
1 59203U 26321OK  26070.40841435  .00000000  00000+0  00000-0 0  9996
2 59203  70.0000 180.0000 0000000   0.0000 324.0000  1.86512155    11
CTC1_L_00683007-09
1 59204U 25092YM  26070.40841435  .00000000  00000+0  00000-0 0  9991
2 59204  70.0000 180.0000 0000000   0.0000   0.0000  1.86512155    13
CTC1_L_00683007-10
1 59205U 24421TI  26070.40841435  .00000000  00000+0  00000-0 0  9997
2 59205  70.0000 180.0000 0000000   0.0000  36.0000  1.86512155    13
CTC1_L_00683008-01
1 59206U 23681FW  26070.40841435  .00000000  00000+0  00000-0 0  9995
2 59206  70.0000 210.0000 0000000   0.0000  84.0000  1.86512155    11
CTC1_L_00683008-02
1 59207U 25115IZ  26070.40841435  .00000000  00000+0  00000-0 0  9990
2 59207  70.0000 210.0000 0000000   0.0000 120.0000  1.86512155    13
CTC1_L_00683008-03
1 59208U 23965KA  26070.40841435  .00000000  00000+0  00000-0 0  9992
2 59208  70.0000 210.0000 0000000   0.0000 156.0000  1.86512155    13
CTC1_L_00683008-04
1 59209U 24613KT  26070.40841435  .00000000  00000+0  00000-0 0  9994
2 59209  70.0000 210.0000 0000000   0.0000 192.0000  1.86512155    14
CTC1_L_00683008-05
1 59210U 24978ME  26070.40841435  .00000000  00000+0  00000-0 0  9990
2 59210  70.0000 210.0000 0000000   0.0000 228.0000  1.86512155    16
CTC1_L_00683008-06
1 59211U 26014QD  26070.40841435  .00000000  00000+0  00000-0 0  9994
2 59211  70.0000 210.0000 0000000   0.0000 264.0000  1.86512155    17
CTC1_L_00683008-07
1 59212U 24615VS  26070.40841435  .00000000  00000+0  00000-0 0  9990
2 59212  70.0000 210.0000 0000000   0.0000 300.0000  1.86512155    19
CTC1_L_00683008-08
1 59213U 25798HO  26070.40841435  .00000000  00000+0  00000-0 0  9994
2 59213  70.0000 210.0000 0000000   0.0000 336.0000  1.86512155    19
CTC1_L_00683008-09
1 59214U 22937PE  26070.40841435  .00000000  00000+0  00000-0 0  9997
2 59214  70.0000 210.0000 0000000   0.0000  12.0000  1.86512155    11
CTC1_L_00683008-10
1 59215U 24719GS  26070.40841435  .00000000  00000+0  00000-0 0  9998
2 59215  70.0000 210.0000 0000000   0.0000  48.0000  1.86512155    11
CTC1_L_00683009-01
1 59216U 22710JE  26070.40841435  .00000000  00000+0  00000-0 0  9998
2 59216  70.0000 240.0000 0000000   0.0000  96.0000  1.86512155    18
CTC1_L_00683009-02
1 59217U 22885JC  26070.40841435  .00000000  00000+0  00000-0 0  9992
2 59217  70.0000 240.0000 0000000   0.0000 132.0000  1.86512155    10
CTC1_L_00683009-03
1 59218U 22841HE  26070.40841435  .00000000  00000+0  00000-0 0  9995
2 59218  70.0000 240.0000 0000000   0.0000 168.0000  1.86512155    10
CTC1_L_00683009-04
1 59219U 25719TF  26070.40841435  .00000000  00000+0  00000-0 0  9993
2 59219  70.0000 240.0000 0000000   0.0000 204.0000  1.86512155    12
CTC1_L_00683009-05
1 59220U 24879J   26070.40841435  .00000000  00000+0  00000-0 0  9991
2 59220  70.0000 240.0000 0000000   0.0000 240.0000  1.86512155    14
CTC1_L_00683009-06
1 59221U 24663OA  26070.40841435  .00000000  00000+0  00000-0 0  9993
2 59221  70.0000 240.0000 0000000   0.0000 276.0000  1.86512155    14
CTC1_L_00683009-07
1 59222U 23713SL  26070.40841435  .00000000  00000+0  00000-0 0  9999
2 59222  70.0000 240.0000 0000000   0.0000 312.0000  1.86512155    16
CTC1_L_00683009-08
1 59223U 22431XP  26070.40841435  .00000000  00000+0  00000-0 0  9996
2 59223  70.0000 240.0000 0000000   0.0000 348.0000  1.86512155    16
CTC1_L_00683009-09
1 59224U 24103ND  26070.40841435  .00000000  00000+0  00000-0 0  9995
2 59224  70.0000 240.0000 0000000   0.0000  24.0000  1.86512155    18
CTC1_L_00683009-10
1 59225U 25117FV  26070.40841435  .00000000  00000+0  00000-0 0  9992
2 59225  70.0000 240.0000 0000000   0.0000  60.0000  1.86512155    19
CTC1_L_00683010-01
1 59226U 24117P   26070.40841435  .00000000  00000+0  00000-0 0  9992
2 59226  70.0000 270.0000 0000000   0.0000 108.0000  1.86512155    16
CTC1_L_00683010-02
1 59227U 23157VA  26070.40841435  .00000000  00000+0  00000-0 0  9996
2 59227  70.0000 270.0000 0000000   0.0000 144.0000  1.86512155    17
CTC1_L_00683010-03
1 59228U 22714UP  26070.40841435  .00000000  00000+0  00000-0 0  9995
2 59228  70.0000 270.0000 0000000   0.0000 180.0000  1.86512155    18
CTC1_L_00683010-04
1 59229U 23303HM  26070.40841435  .00000000  00000+0  00000-0 0  9991
2 59229  70.0000 270.0000 0000000   0.0000 216.0000  1.86512155    19
CTC1_L_00683010-05
1 59230U 22585QS  26070.40841435  .00000000  00000+0  00000-0 0  9994
2 59230  70.0000 270.0000 0000000   0.0000 252.0000  1.86512155    11
CTC1_L_00683010-06
1 59231U 26699NW  26070.40841435  .00000000  00000+0  00000-0 0  9995
2 59231  70.0000 270.0000 0000000   0.0000 288.0000  1.86512155    11
CTC1_L_00683010-07
1 59232U 22866VC  26070.40841435  .00000000  00000+0  00000-0 0  9998
2 59232  70.0000 270.0000 0000000   0.0000 324.0000  1.86512155    13
CTC1_L_00683010-08
1 59233U 25076NL  26070.40841435  .00000000  00000+0  00000-0 0  9995
2 59233  70.0000 270.0000 0000000   0.0000   0.0000  1.86512155    15
CTC1_L_00683010-09
1 59234U 26745T   26070.40841435  .00000000  00000+0  00000-0 0  9990
2 59234  70.0000 270.0000 0000000   0.0000  36.0000  1.86512155    15
CTC1_L_00683010-10
1 59235U 24164PP  26070.40841435  .00000000  00000+0  00000-0 0  9994
2 59235  70.0000 270.0000 0000000   0.0000  72.0000  1.86512155    16
CTC1_L_00683011-01
1 59236U 22283FP  26070.40841435  .00000000  00000+0  00000-0 0  9995
2 59236  70.0000 300.0000 0000000   0.0000 120.0000  1.86512155    15
CTC1_L_00683011-02
1 59237U 26266K   26070.40841435  .00000000  00000+0  00000-0 0  9991
2 59237  70.0000 300.0000 0000000   0.0000 156.0000  1.86512155    15
CTC1_L_00683011-03
1 59238U 22505AA  26070.40841435  .00000000  00000+0  00000-0 0  9994
2 59238  70.0000 300.0000 0000000   0.0000 192.0000  1.86512155    16
CTC1_L_00683011-04
1 59239U 22998CM  26070.40841435  .00000000  00000+0  00000-0 0  9991
2 59239  70.0000 300.0000 0000000   0.0000 228.0000  1.86512155    17
CTC1_L_00683011-05
1 59240U 22199HX  26070.40841435  .00000000  00000+0  00000-0 0  9996
2 59240  70.0000 300.0000 0000000   0.0000 264.0000  1.86512155    19
CTC1_L_00683011-06
1 59241U 24111GZ  26070.40841435  .00000000  00000+0  00000-0 0  9993
2 59241  70.0000 300.0000 0000000   0.0000 300.0000  1.86512155    11
CTC1_L_00683011-07
1 59242U 22308OV  26070.40841435  .00000000  00000+0  00000-0 0  9990
2 59242  70.0000 300.0000 0000000   0.0000 336.0000  1.86512155    11
CTC1_L_00683011-08
1 59243U 22621IZ  26070.40841435  .00000000  00000+0  00000-0 0  9999
2 59243  70.0000 300.0000 0000000   0.0000  12.0000  1.86512155    13
CTC1_L_00683011-09
1 59244U 25354O   26070.40841435  .00000000  00000+0  00000-0 0  9996
2 59244  70.0000 300.0000 0000000   0.0000  48.0000  1.86512155    13
CTC1_L_00683011-10
1 59245U 24794KG  26070.40841435  .00000000  00000+0  00000-0 0  9994
2 59245  70.0000 300.0000 0000000   0.0000  84.0000  1.86512155    14
CTC1_L_00683012-01
1 59246U 26776AE  26070.40841435  .00000000  00000+0  00000-0 0  9997
2 59246  70.0000 330.0000 0000000   0.0000 132.0000  1.86512155    12
CTC1_L_00683012-02
1 59247U 23712MY  26070.40841435  .00000000  00000+0  00000-0 0  9995
2 59247  70.0000 330.0000 0000000   0.0000 168.0000  1.86512155    12
CTC1_L_00683012-03
1 59248U 23694TR  26070.40841435  .00000000  00000+0  00000-0 0  9995
2 59248  70.0000 330.0000 0000000   0.0000 204.0000  1.86512155    14
CTC1_L_00683012-04
1 59249U 23698CP  26070.40841435  .00000000  00000+0  00000-0 0  9990
2 59249  70.0000 330.0000 0000000   0.0000 240.0000  1.86512155    15
CTC1_L_00683012-05
1 59250U 24543UV  26070.40841435  .00000000  00000+0  00000-0 0  9992
2 59250  70.0000 330.0000 0000000   0.0000 276.0000  1.86512155    16
CTC1_L_00683012-06
1 59251U 23296VI  26070.40841435  .00000000  00000+0  00000-0 0  9997
2 59251  70.0000 330.0000 0000000   0.0000 312.0000  1.86512155    18
CTC1_L_00683012-07
1 59252U 22230MK  26070.40841435  .00000000  00000+0  00000-0 0  9995
2 59252  70.0000 330.0000 0000000   0.0000 348.0000  1.86512155    18
CTC1_L_00683012-08
1 59253U 22747BN  26070.40841435  .00000000  00000+0  00000-0 0  9999
2 59253  70.0000 330.0000 0000000   0.0000  24.0000  1.86512155    10
CTC1_L_00683012-09
1 59254U 25168PI  26070.40841435  .00000000  00000+0  00000-0 0  9990
2 59254  70.0000 330.0000 0000000   0.0000  60.0000  1.86512155    11
CTC1_L_00683012-10
1 59255U 23567RN  26070.40841435  .00000000  00000+0  00000-0 0  9992
2 59255  70.0000 330.0000 0000000   0.0000  96.0000  1.86512155    11
